COSMOS 2251 DEB         
1 34671U 93036XR  17345.30312590  .00000565  00000-0  17805-3 0  9995
2 34671  74.0341 205.5548 0022312 278.8691 203.0586 14.42505573460080
